NESS                    
1 58020U 23155E   26068.76452457  .00019469  00000+0  74047-3 0  9996
2 58020  97.5941 152.6141 0006891 179.8776 180.2465 15.26794015133307
STARLINK-31277          
1 59651U 24082W   26068.51271539 -.00002532  00000+0 -82603-4 0  9993
2 59651  43.0003 140.9135 0000619 200.5160 159.5667 15.27558795104986
